{"type": "FeatureCollection", "features": [ {"type": "Feature", "properties": {"norad_id": 42969, "name": "SENTINEL-5P", "group": "resource", "lat": 68.6759944430012, "lon": 124.91607844744802, "alt_km": 819.652909850106, "timestamp": "2025-12-08T23:34:03.627092+00:00", "meta": {"OBJECT_NAME": "SENTINEL-5P", "OBJECT_ID": "2017-064A", "EPOCH": "2025-12-08T12:54:13.935456", "MEAN_MOTION": 14.19515996, "ECCENTRICITY": 9.565e-05, "INCLINATION": 98.7779, "RA_OF_ASC_NODE": 281.1592, "ARG_OF_PERICENTER": 87.0871, "MEAN_ANOMALY": 273.0415, "EPHEMERIS_TYPE": 0, "CLASSIFICATION_TYPE": "U", "NORAD_CAT_ID": 42969, "ELEMENT_SET_NO": 999, "REV_AT_EPOCH": 42251, "BSTAR": 0.0001169899, "MEAN_MOTION_DOT": 2.02e-06, "MEAN_MOTION_DDOT": 0}, "tle": {"line1": "1 42969U 17064A   25342.53766129  .00000202  00000+0  11699-3 0  9995", "line2": "2 42969  98.7779 281.1592 0000956  87.0871 273.0415 14.19515996422514"}}, "geometry": {"type": "Point", "coordinates": [124.91607844744802, 68.6759944430012]}}, {"type": "Feature", "properties": {"norad_id": 42987, "name": "SKYSAT-C11", "group": "resource", "lat": -62.117589576188024, "lon": 134.63110586959542, "alt_km": 432.7434015740155, "timestamp": "2025-12-08T23:34:03.627103+00:00", "meta": {"OBJECT_NAME": "SKYSAT-C11", "OBJECT_ID": "2017-068A", "EPOCH": "2025-12-08T08:19:03.552096", "MEAN_MOTION": 15.4717093, "ECCENTRICITY": 9.299e-05, "INCLINATION": 97.4146, "RA_OF_ASC_NODE": 119.7309, "ARG_OF_PERICENTER": 106.2293, "MEAN_ANOMALY": 253.9059, "EPHEMERIS_TYPE": 0, "CLASSIFICATION_TYPE": "U", "NORAD_CAT_ID": 42987, "ELEMENT_SET_NO": 999, "REV_AT_EPOCH": 45363, "BSTAR": 0.00053513536, "MEAN_MOTION_DOT": 0.00027139, "MEAN_MOTION_DDOT": 0}, "tle": {"line1": "1 42987U 17068A   25342.34656889  .00027139  00000+0  53514-3 0  9999", "line2": "2 42987  97.4146 119.7309 0000929 106.2293 253.9059 15.47170930453637"}}, "geometry": {"type": "Point", "coordinates": [134.63110586959542, -62.117589576188024]}}, {"type": "Feature", "properties": {"norad_id": 42988, "name": "SKYSAT-C10", "group": "resource", "lat": -44.20937237902631, "lon": -73.46644225666047, "alt_km": 478.09156017084206, "timestamp": "2025-12-08T23:34:03.627113+00:00", "meta": {"OBJECT_NAME": "SKYSAT-C10", "OBJECT_ID": "2017-068B", "EPOCH": "2025-12-08T08:28:54.179040", "MEAN_MOTION": 15.31919089, "ECCENTRICITY": 0.00053067, "INCLINATION": 97.4263, "RA_OF_ASC_NODE": 113.1931, "ARG_OF_PERICENTER": 115.9492, "MEAN_ANOMALY": 244.2297, "EPHEMERIS_TYPE": 0, "CLASSIFICATION_TYPE": "U", "NORAD_CAT_ID": 42988, "ELEMENT_SET_NO": 999, "REV_AT_EPOCH": 45312, "BSTAR": 0.00044833474, "MEAN_MOTION_DOT": 0.00013754, "MEAN_MOTION_DDOT": 0}, "tle": {"line1": "1 42988U 17068B   25342.35340485  .00013754  00000+0  44833-3 0  9995", "line2": "2 42988  97.4263 113.1931 0005306 115.9492 244.2297 15.31919089453129"}}, "geometry": {"type": "Point", "coordinates": [-73.46644225666047, -44.20937237902631]}}, {"type": "Feature", "properties": {"norad_id": 42989, "name": "SKYSAT-C9", "group": "resource", "lat": 17.985071423200477, "lon": 110.78227198500628, "alt_km": 457.6246023185204, "timestamp": "2025-12-08T23:34:03.627123+00:00", "meta": {"OBJECT_NAME": "SKYSAT-C9", "OBJECT_ID": "2017-068C", "EPOCH": "2025-12-08T07:51:09.642816", "MEAN_MOTION": 15.35879402, "ECCENTRICITY": 0.0010689, "INCLINATION": 97.4193, "RA_OF_ASC_NODE": 112.5471, "ARG_OF_PERICENTER": 101.9087, "MEAN_ANOMALY": 258.3356, "EPHEMERIS_TYPE": 0, "CLASSIFICATION_TYPE": "U", "NORAD_CAT_ID": 42989, "ELEMENT_SET_NO": 999, "REV_AT_EPOCH": 45340, "BSTAR": 0.00050697262, "MEAN_MOTION_DOT": 0.00017672, "MEAN_MOTION_DDOT": 0}, "tle": {"line1": "1 42989U 17068C   25342.32719494  .00017672  00000+0  50697-3 0  9991", "line2": "2 42989  97.4193 112.5471 0010689 101.9087 258.3356 15.35879402453400"}}, "geometry": {"type": "Point", "coordinates": [110.78227198500628, 17.985071423200477]}}, {"type": "Feature", "properties": {"norad_id": 42990, "name": "SKYSAT-C8", "group": "resource", "lat": 30.96365750927697, "lon": 108.47647696420546, "alt_km": 464.75615945112986, "timestamp": "2025-12-08T23:34:03.627133+00:00", "meta": {"OBJECT_NAME": "SKYSAT-C8", "OBJECT_ID": "2017-068D", "EPOCH": "2025-12-08T15:35:52.306944", "MEAN_MOTION": 15.3278127, "ECCENTRICITY": 0.00018792, "INCLINATION": 97.4284, "RA_OF_ASC_NODE": 112.633, "ARG_OF_PERICENTER": 4.8072, "MEAN_ANOMALY": 355.3188, "EPHEMERIS_TYPE": 0, "CLASSIFICATION_TYPE": "U", "NORAD_CAT_ID": 42990, "ELEMENT_SET_NO": 999, "REV_AT_EPOCH": 45308, "BSTAR": 0.00050442391, "MEAN_MOTION_DOT": 0.00015907, "MEAN_MOTION_DDOT": 0}, "tle": {"line1": "1 42990U 17068D   25342.64991096  .00015907  00000+0  50442-3 0  9995", "line2": "2 42990  97.4284 112.6330 0001879   4.8072 355.3188 15.32781270453081"}}, "geometry": {"type": "Point", "coordinates": [108.47647696420546, 30.96365750927697]}}, {"type": "Feature", "properties": {"norad_id": 42991, "name": "SKYSAT-C7", "group": "resource", "lat": -73.13587573302978, "lon": -91.4851900219086, "alt_km": 481.913945450965, "timestamp": "2025-12-08T23:34:03.627143+00:00", "meta": {"OBJECT_NAME": "SKYSAT-C7", "OBJECT_ID": "2017-068E", "EPOCH": "2025-12-08T14:37:20.181504", "MEAN_MOTION": 15.32187319, "ECCENTRICITY": 0.0007827, "INCLINATION": 97.4291, "RA_OF_ASC_NODE": 113.6369, "ARG_OF_PERICENTER": 70.0654, "MEAN_ANOMALY": 290.143, "EPHEMERIS_TYPE": 0, "CLASSIFICATION_TYPE": "U", "NORAD_CAT_ID": 42991, "ELEMENT_SET_NO": 999, "REV_AT_EPOCH": 45314, "BSTAR": 0.00048073761, "MEAN_MOTION_DOT": 0.00014887, "MEAN_MOTION_DDOT": 0}, "tle": {"line1": "1 42991U 17068E   25342.60926136  .00014887  00000+0  48074-3 0  9999", "line2": "2 42991  97.4291 113.6369 0007827  70.0654 290.1430 15.32187319453140"}}, "geometry": {"type": "Point", "coordinates": [-91.4851900219086, -73.13587573302978]}}, {"type": "Feature", "properties": {"norad_id": 42992, "name": "SKYSAT-C6", "group": "resource", "lat": 22.61257223577458, "lon": 111.33539546933298, "alt_km": 470.23192066628053, "timestamp": "2025-12-08T23:34:03.627154+00:00", "meta": {"OBJECT_NAME": "SKYSAT-C6", "OBJECT_ID": "2017-068F", "EPOCH": "2025-12-08T15:37:37.755552", "MEAN_MOTION": 15.31358473, "ECCENTRICITY": 0.00052335, "INCLINATION": 97.4324, "RA_OF_ASC_NODE": 114.1207, "ARG_OF_PERICENTER": 93.7189, "MEAN_ANOMALY": 266.465, "EPHEMERIS_TYPE": 0, "CLASSIFICATION_TYPE": "U", "NORAD_CAT_ID": 42992, "ELEMENT_SET_NO": 999, "REV_AT_EPOCH": 45313, "BSTAR": 0.00050596467, "MEAN_MOTION_DOT": 0.00015266, "MEAN_MOTION_DDOT": 0}, "tle": {"line1": "1 42992U 17068F   25342.65113143  .00015266  00000+0  50596-3 0  9995", "line2": "2 42992  97.4324 114.1207 0005233  93.7189 266.4650 15.31358473453138"}}, "geometry": {"type": "Point", "coordinates": [111.33539546933298, 22.61257223577458]}}, {"type": "Feature", "properties": {"norad_id": 43111, "name": "CARTOSAT-2F", "group": "resource", "lat": -65.04567487710784, "lon": 56.97074131540352, "alt_km": 515.8994985863046, "timestamp": "2025-12-08T23:34:03.627165+00:00", "meta": {"OBJECT_NAME": "CARTOSAT-2F", "OBJECT_ID": "2018-004A", "EPOCH": "2025-12-08T14:22:25.230432", "MEAN_MOTION": 15.19211109, "ECCENTRICITY": 7.265e-05, "INCLINATION": 97.4318, "RA_OF_ASC_NODE": 40.3031, "ARG_OF_PERICENTER": 143.0028, "MEAN_ANOMALY": 217.1257, "EPHEMERIS_TYPE": 0, "CLASSIFICATION_TYPE": "U", "NORAD_CAT_ID": 43111, "ELEMENT_SET_NO": 999, "REV_AT_EPOCH": 43839, "BSTAR": 0.00035414315, "MEAN_MOTION_DOT": 7.39e-05, "MEAN_MOTION_DDOT": 0}, "tle": {"line1": "1 43111U 18004A   25342.59890313  .00007390  00000+0  35414-3 0  9995", "line2": "2 43111  97.4318  40.3031 0000726 143.0028 217.1257 15.19211109438390"}}, "geometry": {"type": "Point", "coordinates": [56.97074131540352, -65.04567487710784]}}, {"type": "Feature", "properties": {"norad_id": 43259, "name": "GAOFEN-1 02", "group": "resource", "lat": -78.5828418359393, "lon": 85.4831816557572, "alt_km": 647.1768003570733, "timestamp": "2025-12-08T23:34:03.627175+00:00", "meta": {"OBJECT_NAME": "GAOFEN-1 02", "OBJECT_ID": "2018-031A", "EPOCH": "2025-12-08T14:10:45.590880", "MEAN_MOTION": 14.76468436, "ECCENTRICITY": 0.0001478, "INCLINATION": 98.0812, "RA_OF_ASC_NODE": 40.3786, "ARG_OF_PERICENTER": 228.1563, "MEAN_ANOMALY": 131.9521, "EPHEMERIS_TYPE": 0, "CLASSIFICATION_TYPE": "U", "NORAD_CAT_ID": 43259, "ELEMENT_SET_NO": 999, "REV_AT_EPOCH": 41457, "BSTAR": 0.00028033861, "MEAN_MOTION_DOT": 1.899e-05, "MEAN_MOTION_DDOT": 0}, "tle": {"line1": "1 43259U 18031A   25342.59080545  .00001899  00000+0  28034-3 0  9994", "line2": "2 43259  98.0812  40.3786 0001478 228.1563 131.9521 14.76468436414570"}}, "geometry": {"type": "Point", "coordinates": [85.4831816557572, -78.5828418359393]}}, {"type": "Feature", "properties": {"norad_id": 43260, "name": "GAOFEN-1 03", "group": "resource", "lat": 33.228332816705766, "lon": 35.306958347766916, "alt_km": 637.6856426805853, "timestamp": "2025-12-08T23:34:03.627185+00:00", "meta": {"OBJECT_NAME": "GAOFEN-1 03", "OBJECT_ID": "2018-031B", "EPOCH": "2025-12-08T15:17:00.096288", "MEAN_MOTION": 14.76425012, "ECCENTRICITY": 0.00022663, "INCLINATION": 98.0805, "RA_OF_ASC_NODE": 40.3018, "ARG_OF_PERICENTER": 339.8149, "MEAN_ANOMALY": 20.297, "EPHEMERIS_TYPE": 0, "CLASSIFICATION_TYPE": "U", "NORAD_CAT_ID": 43260, "ELEMENT_SET_NO": 999, "REV_AT_EPOCH": 41457, "BSTAR": 0.00027889197, "MEAN_MOTION_DOT": 1.887e-05, "MEAN_MOTION_DDOT": 0}, "tle": {"line1": "1 43260U 18031B   25342.63680667  .00001887  00000+0  27889-3 0  9996", "line2": "2 43260  98.0805  40.3018 0002266 339.8149  20.2970 14.76425012414579"}}, "geometry": {"type": "Point", "coordinates": [35.306958347766916, 33.228332816705766]}}]}